KUNV 071953Z 13008KT 10SM BKN120 M02/M10 A3027  
KUNV 071934Z 10010KT 10SM BKN050 M02/M10 A3027
KUNV 305959Z 10010KT 10SM BKN050 M02/M10 A3027
KUNV 010001Z 10010KT 10SM BKN050 M02/M10 A3027
KUNV 071934Z 10010G27KT 10SM BKN050 M02/M10 A3027
KUNV 071853Z 11004KT 10SM SCT030 OVC060 M02/M09 A3030
KUNV 071753Z 00000KT 10SM SCT045 M03/M10 A3031
KUNV 071714Z 07005KT 4SM -SN SCT026 OVC045 M02/M10 A3032
KUNV 071653Z 09004KT 7SM OVC060 M02/M09 A3036
KUNV 071553Z 12004KT 10SM BKN055 OVC085 M02/M09 A3039
KUNV 071453Z 06003KT 10SM BKN055 OVC110 M03/M08 A3042
